DELTA 1 R/B             
1 20323U 89089B   25329.60161389  .00000448  00000+0  11936-3 0  9997
2 20323  97.0766 188.5542 0070754  91.4325 269.4980 14.50551675880640
ARIANE 40 R/B           
1 20443U 90005H   25329.78244108  .00000388  00000+0  13719-3 0  9994
2 20443  98.3266  28.4380 0010778 152.1718 208.0049 14.39779454877853
DELTA 2 R/B(1)          
1 20453U 90008B   25329.74871111  .00040013  00000+0  67378-3 0  9993
2 20453  35.6052 130.1078 0114317  22.9739 337.6052 15.43554414910008
COSMOS 2058             
1 20465U 90010A   25329.73128020  .00004991  00000+0  30318-3 0  9991
2 20465  82.4631 149.7634 0009357 342.2684  17.8217 15.10252535926541
SL-14 R/B               
1 20466U 90010B   25329.81507441  .00000533  00000+0  61858-4 0  9991
2 20466  82.5031   4.9428 0018289 283.2192  76.6982 14.83448418913085
SL-14 R/B               
1 20511U 90018B   25329.46298737  .00000580  00000+0  69920-4 0  9996
2 20511  82.5199 320.5147 0017954  76.4587 283.8626 14.82020512907141
HST                     
1 20580U 90037B   25329.48253684  .00009134  00000+0  31969-3 0  9992
2 20580  28.4701  29.9158 0002001  58.7952 301.2839 15.27702932757353
SL-16 R/B               
1 20625U 90046B   25329.77969733  .00000250  00000+0  15381-3 0  9993
2 20625  70.9963 156.1388 0012246 105.0628 255.1850 14.14992024833691
COSMOS 2084             
1 20663U 90055A   25329.55783609  .00003355  00000+0  24742-3 0  9997
2 20663  62.7910 330.5312 0034438 172.5921 187.5696 15.04862052920646
SL-6 R/B(2)             
1 20666U 90055D   25329.73543483  .00003054  00000+0  24035-3 0  9995
2 20666  62.7830 247.1873 0011330 295.1265  64.8658 15.02961287922560
SL-8 R/B                
1 20775U 90078B   25329.82348003  .00026704  00000+0  82671-3 0  9999
2 20775  82.9053 344.4400 0377408   2.6799 357.6316 14.84903531793863
SL-8 R/B                
1 21088U 91006B   25329.82744837  .00000120  00000+0  10512-3 0  9993
2 21088  82.9429 247.2916 0021889 329.6987  96.5751 13.77487153749771
OKEAN-3                 
1 21397U 91039A   25329.78362190  .00005256  00000+0  37835-3 0  9997
2 21397  82.5175  77.4557 0013904 328.5717  31.4677 15.03951373849418
COSMOS 2151             
1 21422U 91042A   25329.80867032  .00002667  00000+0  21424-3 0  9998
2 21422  82.4969 183.8174 0013905  53.7501 306.5005 14.99597708847627
SL-14 R/B               
1 21423U 91042B   25329.42664801  .00000567  00000+0  68938-4 0  9995
2 21423  82.4915 317.9604 0015971 219.6863 140.3184 14.81715312837632
ERS-1                   
1 21574U 91050A   25329.77513292  .00000368  00000+0  13248-3 0  9998
2 21574  98.7915 340.4052 0032566 148.9951 211.3167 14.39345399800781
ARIANE 40 R/B           
1 21610U 91050F   25329.72638301  .00000436  00000+0  14339-3 0  9991
2 21610  98.2188  20.7691 0003794  47.4060 312.7450 14.42792252804009
INTERCOSMOS 25          
1 21819U 91086A   25329.62769074  .00001234  00000+0  24253-3 0  9995
2 21819  82.6067  12.9232 1487479 341.2929  13.8569 12.11642564484089
SL-8 R/B                
1 21876U 92008B   25329.83154965  .00000145  00000+0  13280-3 0  9991
2 21876  82.9267 345.0244 0035990  65.9040 107.7425 13.75953579695136
SL-8 R/B                
1 21938U 92020B   25329.82130854  .00000080  00000+0  67618-4 0  9997
2 21938  82.9316 230.8792 0027877 226.2651 202.7691 13.75523771686851
USA 81                  
1 21949U 92023A   25329.70876682  .00000213  00000+0  71574-4 0  9999
2 21949  85.0095 191.3972 0002208  66.5722 293.5703 14.32318084 79904
COSMOS 2219             
1 22219U 92076A   25329.81792265 -.00000187  00000+0 -73562-4 0  9995
2 22219  71.0605 235.2043 0018525 350.8818   9.1965 14.14066535703690
SL-16 R/B               
1 22220U 92076B   25329.64086806  .00000285  00000+0  16617-3 0  9999
2 22220  71.0013  47.5495 0015097 256.2658 210.9967 14.16837378707097
COSMOS 2221             
1 22236U 92080A   25329.62463689  .00002693  00000+0  23947-3 0  9996
2 22236  82.5055  18.7053 0014709 176.2878 183.8456 14.95666375765236
SL-16 R/B               
1 22285U 92093B   25329.78299912 -.00000189  00000+0 -72531-4 0  9991
2 22285  71.0214 222.3898 0002044 122.5434 237.5886 14.15427592698452
COSMOS 2228             
1 22286U 92094A   25329.77550863  .00003275  00000+0  28463-3 0  9998
2 22286  82.5177 336.7668 0016461 294.1665  65.7836 14.96613168760511
SL-16 R/B               
1 22566U 93016B   25329.74240794  .00000083  00000+0  67210-4 0  9998
2 22566  71.0088  73.5006 0008268 129.4756 230.7099 14.15288800687464
COSMOS 2242             
1 22626U 93024A   25329.64712097  .00002882  00000+0  25429-3 0  9997
2 22626  82.5198   6.1809 0014928 297.6575  62.3131 14.96003535764832
SL-16 R/B               
1 22803U 93059B   25329.79241008 -.00000134  00000+0 -42475-4 0  9998
2 22803  70.9897 230.2216 0016969   0.8092 359.3056 14.17208060664818
ARIANE 40 R/B           
1 22830U 93061H   25329.78829773  .00000293  00000+0  12321-3 0  9991
2 22830  98.5096  35.6252 0009940 227.3739 132.6608 14.32785122679229
COSMOS 2278             
1 23087U 94023A   25329.63260865  .00000193  00000+0  12534-3 0  9995
2 23087  71.0557  32.8008 0009325 202.8234 157.2475 14.14348974630092
SL-16 R/B               
1 23088U 94023B   25329.58521884  .00000187  00000+0  12126-3 0  9991
2 23088  70.9991 289.5103 0001132 112.8748 247.2494 14.14992290631366
SL-16 R/B               
1 23343U 94074B   25329.70712285  .00000622  00000+0  90281-4 0  9995
2 23343  97.7222 359.6873 0006264 187.3972 289.2353 14.79260821671873
SL-16 R/B               
1 23405U 94077B   25329.81939074 -.00000226  00000+0 -91184-4 0  9991
2 23405  70.9819 211.0088 0004549 297.7577  62.3084 14.15547211601535
ARIANE 40+ R/B          
1 23561U 95021B   25329.78814705  .00000398  00000+0  14106-3 0  9999
2 23561  98.4670  37.5802 0007933  94.1575  16.2529 14.39676084604295
SL-16 R/B               
1 23705U 95058B   25329.60923855 -.00000004  00000+0  22253-4 0  9995
2 23705  71.0224  38.7695 0014906 276.9392  83.0035 14.15474670553125
SL-16 R/B               
1 24298U 96051B   25329.63293566 -.00000013  00000+0  19496-4 0  9994
2 24298  70.7607  35.4934 0018831 282.5986  77.3027 14.12394196506954
ORBVIEW 2 (SEASTAR)     
1 24883U 97037A   25329.41901829  .00000383  00000+0  14955-3 0  9996
2 24883  98.8453 126.0585 0002510  32.1419 327.9918 14.35397832493515
SL-16 R/B               
1 25400U 98043G   25329.81851703  .00000110  00000+0  65135-4 0  9994
2 25400  98.8099 277.5443 0009131 321.2732  38.7792 14.26019366424185
SL-16 R/B               
1 25407U 98045B   25329.60066906  .00000290  00000+0  17037-3 0  9999
2 25407  71.0125  40.4693 0007984 200.8157 159.2643 14.16170667412368
ISS (ZARYA)             
1 25544U 98067A   25329.44789911  .00013664  00000+0  25508-3 0  9996
2 25544  51.6313 228.0726 0003851 166.4062 193.7031 15.49072731540170
CZ-4B R/B               
1 25732U 99025C   25329.75670522  .00000103  00000+0  70917-4 0  9990
2 25732  98.6793  11.4147 0036003 284.2046 187.8416 14.18237381373432
OKEAN-O                 
1 25860U 99039A   25329.75378338  .00000904  00000+0  12611-3 0  9992
2 25860  97.9626  25.6008 0001051  70.5859 289.5467 14.80118099419011
SL-16 R/B               
1 25861U 99039B   25329.76522022  .00000786  00000+0  10687-3 0  9994
2 25861  98.0149  23.9135 0013754 231.3404 128.6578 14.81549954421470
DELTA 2 R/B             
1 25876U 99041E   25329.78912595  .00000966  00000+0  19535-3 0  9994
2 25876  51.7626 356.1082 0504912  41.8167 322.0215 14.11337328348351
HELIOS 1B               
1 25977U 99064A   25329.71432380  .00002545  00000+0  28947-3 0  9995
2 25977  98.1751 223.8759 0002419  65.7014 294.4453 14.87176883669801
TERRA                   
1 25994U 99068A   25329.82250154  .00000626  00000+0  13696-3 0  9990
2 25994  97.9771  22.1253 0003140 132.3061 318.0597 14.60923712379917
SL-16 R/B               
1 26070U 00006B   25329.37713894  .00000181  00000+0  11635-3 0  9992
2 26070  71.0018 317.1653 0017486 333.1017  26.9198 14.15802037333795
TITAN 4B R/B            
1 26474U 00047B   25329.77106904  .00004276  00000+0  27615-3 0  9991
2 26474  67.9903 332.5056 0040355 164.7220 195.5159 15.08599878377239
ENVISAT                 
1 27386U 02009A   25329.86938479  .00000177  00000+0  71058-4 0  9991
2 27386  98.3576 281.0399 0001260  80.6564 338.0395 14.38989890244242
IDEFIX & ARIANE 42P R/B 
1 27422U 02021B   25329.80146263  .00000381  00000+0  16162-3 0  9993
2 27422  98.5764 264.7144 0012590 129.4387 230.7912 14.30931777229163
AQUA                    
1 27424U 02022A   25329.85034480  .00001347  00000+0  28002-3 0  9997
2 27424  98.4014 290.4579 0000592  87.9739 331.4843 14.61749004253565
CZ-4B R/B               
1 27432U 02024C   25329.74986259  .00000062  00000+0  55127-4 0  9998
2 27432  98.9024  18.5790 0049409 319.0679 152.1451 14.14522719214544
MIDORI II (ADEOS-II)    
1 27597U 02056A   25329.84321931  .00000369  00000+0  16327-3 0  9994
2 27597  98.7613 282.7132 0000754  21.2568 338.8645 14.29188725195460
H-2A R/B                
1 27601U 02056E   25329.79207404  .00000372  00000+0  14462-3 0  9994
2 27601  98.3043 289.2263 0071451 110.8020 315.3298 14.33656789199223
CZ-4B R/B               
1 28059U 03049C   25329.81481847  .00000491  00000+0  12433-3 0  9991
2 28059  98.6778 315.7407 0048020 187.3569 172.6928 14.54886532171494
CZ-2C R/B               
1 28222U 04012C   25329.68310331  .00041987  00000+0  64595-3 0  9999
2 28222  97.7444  20.9151 0017591 336.5513  23.4935 15.53935371188072
SL-16 R/B               
1 28353U 04021B   25329.72102660  .00000125  00000+0  90000-4 0  9993
2 28353  71.0012  90.6775 0006069 219.1958 140.8726 14.14581554108133
CZ-4B R/B               
1 28415U 04035C   25329.65647429  .00010709  00000+0  40062-3 0  9997
2 28415  97.3627   0.2315 0032982 340.4741  19.5233 15.26982094164026
